{
  "type": "FeatureCollection",
  "features": [
    {
      "type": "Feature",
      "properties": {
        "norad_id": 41581,
        "name": "INTELSAT 31 (IS-31)",
        "group": "intelsat",
        "lat": -0.01607479643559105,
        "lon": -82.53448163964798,
        "alt_km": 35781.74133853326,
        "timestamp": "2025-12-20T18:51:31.385741+00:00",
        "meta_object_name": "INTELSAT 31 (IS-31)",
        "meta_object_id": "2016-035A",
        "meta_epoch": "2025-12-20T12:34:47.372160",
        "meta_mean_motion": 1.00275908,
        "meta_eccentricity": 0.00019811,
        "meta_inclination": 0.0288,
        "meta_ra_of_asc_node": 268.1426,
        "meta_arg_of_pericenter": 301.6043,
        "meta_mean_anomaly": 333.2619,
        "meta_ephemeris_type": 0,
        "meta_classification_type": "U",
        "meta_norad_cat_id": 41581,
        "meta_element_set_no": 999,
        "meta_rev_at_epoch": 3489,
        "meta_bstar": 0,
        "meta_mean_motion_dot": -1.28e-06,
        "meta_mean_motion_ddot": 0,
        "tle_line1": "1 41581U 16035A   25354.52415940 -.00000128  00000+0  00000+0 0  9993",
        "tle_line2": "2 41581   0.0288 268.1426 0001981 301.6043 333.2619  1.00275908 34897"
      },
      "geometry": {
        "type": "Point",
        "coordinates": [
          -82.53448163964798,
          -0.01607479643559105
        ]
      }
    },
    {
      "type": "Feature",
      "properties": {
        "norad_id": 41747,
        "name": "INTELSAT 36 (IS-36)",
        "group": "intelsat",
        "lat": 0.037018338611756095,
        "lon": 80.98827972627261,
        "alt_km": 35787.72633574897,
        "timestamp": "2025-12-20T18:51:31.385752+00:00",
        "meta_object_name": "INTELSAT 36 (IS-36)",
        "meta_object_id": "2016-053A",
        "meta_epoch": "2025-12-20T10:07:56.413344",
        "meta_mean_motion": 1.00271763,
        "meta_eccentricity": 0.0001172,
        "meta_inclination": 0.0107,
        "meta_ra_of_asc_node": 8.1508,
        "meta_arg_of_pericenter": 323.4554,
        "meta_mean_anomaly": 338.1246,
        "meta_ephemeris_type": 0,
        "meta_classification_type": "U",
        "meta_norad_cat_id": 41747,
        "meta_element_set_no": 999,
        "meta_rev_at_epoch": 3415,
        "meta_bstar": 0,
        "meta_mean_motion_dot": -1e-08,
        "meta_mean_motion_ddot": 0,
        "tle_line1": "1 41747U 16053A   25354.42218071 -.00000001  00000+0  00000+0 0  9992",
        "tle_line2": "2 41747   0.0107   8.1508 0001172 323.4554 338.1246  1.00271763 34159"
      },
      "geometry": {
        "type": "Point",
        "coordinates": [
          80.98827972627261,
          0.037018338611756095
        ]
      }
    },
    {
      "type": "Feature",
      "properties": {
        "norad_id": 41945,
        "name": "INTELSAT 32E (IS-32E)",
        "group": "intelsat",
        "lat": -0.035065784716449035,
        "lon": -30.686049172835826,
        "alt_km": 35784.715400430185,
        "timestamp": "2025-12-20T18:51:31.385763+00:00",
        "meta_object_name": "INTELSAT 32E (IS-32E)",
        "meta_object_id": "2017-007B",
        "meta_epoch": "2025-12-20T07:53:24.298080",
        "meta_mean_motion": 1.00274334,
        "meta_eccentricity": 3.536e-05,
        "meta_inclination": 0.0278,
        "meta_ra_of_asc_node": 69.9783,
        "meta_arg_of_pericenter": 320.6624,
        "meta_mean_anomaly": 133.7019,
        "meta_ephemeris_type": 0,
        "meta_classification_type": "U",
        "meta_norad_cat_id": 41945,
        "meta_element_set_no": 999,
        "meta_rev_at_epoch": 3243,
        "meta_bstar": 0,
        "meta_mean_motion_dot": -2.45e-06,
        "meta_mean_motion_ddot": 0,
        "tle_line1": "1 41945U 17007B   25354.32875345 -.00000245  00000+0  00000+0 0  9994",
        "tle_line2": "2 41945   0.0278  69.9783 0000353 320.6624 133.7019  1.00274334 32438"
      },
      "geometry": {
        "type": "Point",
        "coordinates": [
          -30.686049172835826,
          -0.035065784716449035
        ]
      }
    },
    {
      "type": "Feature",
      "properties": {
        "norad_id": 42818,
        "name": "INTELSAT 35E (IS-35E)",
        "group": "intelsat",
        "lat": -0.024248228225853322,
        "lon": -21.982391365147517,
        "alt_km": 35783.161858143576,
        "timestamp": "2025-12-20T18:51:31.385774+00:00",
        "meta_object_name": "INTELSAT 35E (IS-35E)",
        "meta_object_id": "2017-041A",
        "meta_epoch": "2025-12-20T10:47:38.508864",
        "meta_mean_motion": 1.00271067,
        "meta_eccentricity": 0.00018459,
        "meta_inclination": 0.018,
        "meta_ra_of_asc_node": 20.8417,
        "meta_arg_of_pericenter": 250.9916,
        "meta_mean_anomaly": 304.8735,
        "meta_ephemeris_type": 0,
        "meta_classification_type": "U",
        "meta_norad_cat_id": 42818,
        "meta_element_set_no": 999,
        "meta_rev_at_epoch": 3102,
        "meta_bstar": 0,
        "meta_mean_motion_dot": -2.14e-06,
        "meta_mean_motion_ddot": 0,
        "tle_line1": "1 42818U 17041A   25354.44975126 -.00000214  00000+0  00000+0 0  9999",
        "tle_line2": "2 42818   0.0180  20.8417 0001845 250.9916 304.8735  1.00271067 31026"
      },
      "geometry": {
        "type": "Point",
        "coordinates": [
          -21.982391365147517,
          -0.024248228225853322
        ]
      }
    },
    {
      "type": "Feature",
      "properties": {
        "norad_id": 42950,
        "name": "INTELSAT 37E (IS-37E)",
        "group": "intelsat",
        "lat": -0.012808339448802667,
        "lon": -5.486639963373855,
        "alt_km": 35787.6359086877,
        "timestamp": "2025-12-20T18:51:31.385785+00:00",
        "meta_object_name": "INTELSAT 37E (IS-37E)",
        "meta_object_id": "2017-059A",
        "meta_epoch": "2025-12-20T10:31:38.599680",
        "meta_mean_motion": 1.00270843,
        "meta_eccentricity": 0.00029501,
        "meta_inclination": 0.0188,
        "meta_ra_of_asc_node": 19.6627,
        "meta_arg_of_pericenter": 238.8666,
        "meta_mean_anomaly": 330.6486,
        "meta_ephemeris_type": 0,
        "meta_classification_type": "U",
        "meta_norad_cat_id": 42950,
        "meta_element_set_no": 999,
        "meta_rev_at_epoch": 3027,
        "meta_bstar": 0,
        "meta_mean_motion_dot": -1.17e-06,
        "meta_mean_motion_ddot": 0,
        "tle_line1": "1 42950U 17059A   25354.43864120 -.00000117  00000+0  00000+0 0  9997",
        "tle_line2": "2 42950   0.0188  19.6627 0002950 238.8666 330.6486  1.00270843 30272"
      },
      "geometry": {
        "type": "Point",
        "coordinates": [
          -5.486639963373855,
          -0.012808339448802667
        ]
      }
    },
    {
      "type": "Feature",
      "properties": {
        "norad_id": 43632,
        "name": "AZERSPACE 2 (IS-38)",
        "group": "intelsat",
        "lat": 0.017176635080318484,
        "lon": 57.607475613200236,
        "alt_km": 35790.31688377103,
        "timestamp": "2025-12-20T18:51:31.385797+00:00",
        "meta_object_name": "AZERSPACE 2 (IS-38)",
        "meta_object_id": "2018-074A",
        "meta_epoch": "2025-12-20T04:53:04.070112",
        "meta_mean_motion": 1.00270817,
        "meta_eccentricity": 0.0001162,
        "meta_inclination": 0.0082,
        "meta_ra_of_asc_node": 42.9819,
        "meta_arg_of_pericenter": 229.623,
        "meta_mean_anomaly": 294.8181,
        "meta_ephemeris_type": 0,
        "meta_classification_type": "U",
        "meta_norad_cat_id": 43632,
        "meta_element_set_no": 999,
        "meta_rev_at_epoch": 2665,
        "meta_bstar": 0,
        "meta_mean_motion_dot": 1.6e-06,
        "meta_mean_motion_ddot": 0,
        "tle_line1": "1 43632U 18074A   25354.20351933  .00000160  00000+0  00000+0 0  9998",
        "tle_line2": "2 43632   0.0082  42.9819 0001162 229.6230 294.8181  1.00270817 26655"
      },
      "geometry": {
        "type": "Point",
        "coordinates": [
          57.607475613200236,
          0.017176635080318484
        ]
      }
    },
    {
      "type": "Feature",
      "properties": {
        "norad_id": 43633,
        "name": "HORIZONS-3E",
        "group": "intelsat",
        "lat": -0.0007135216548513619,
        "lon": -178.5510951708264,
        "alt_km": 35790.21341023765,
        "timestamp": "2025-12-20T18:51:31.385808+00:00",
        "meta_object_name": "HORIZONS-3E",
        "meta_object_id": "2018-074B",
        "meta_epoch": "2025-12-20T11:32:38.877792",
        "meta_mean_motion": 1.00267376,
        "meta_eccentricity": 9.046e-05,
        "meta_inclination": 0.0089,
        "meta_ra_of_asc_node": 234.5772,
        "meta_arg_of_pericenter": 86.8436,
        "meta_mean_anomaly": 110.0297,
        "meta_ephemeris_type": 0,
        "meta_classification_type": "U",
        "meta_norad_cat_id": 43633,
        "meta_element_set_no": 999,
        "meta_rev_at_epoch": 2654,
        "meta_bstar": 0,
        "meta_mean_motion_dot": 0,
        "meta_mean_motion_ddot": 0,
        "tle_line1": "1 43633U 18074B   25354.48100553  .00000000  00000+0  00000+0 0  9992",
        "tle_line2": "2 43633   0.0089 234.5772 0000904  86.8436 110.0297  1.00267376 26545"
      },
      "geometry": {
        "type": "Point",
        "coordinates": [
          -178.5510951708264,
          -0.0007135216548513619
        ]
      }
    }
  ]
}